KUIPER-00064            
1 64524U 25134AA  26065.45373021 -.00082872  00000+0 -11047-1 0  9992
2 64524  51.9034 249.8324 0001265  79.4550 280.6554 14.79660899 39563
KUIPER-00065            
1 64525U 25134AB  26065.51577032  .00003925  00000+0  54384-3 0  9991
2 64525  51.9024 254.7134 0000796  77.5932 282.5119 14.79916148 39488
KUIPER-00066            
1 64526U 25134AC  26065.35582076  .00020697  00000+0  88374-3 0  9999
2 64526  51.8699 199.7817 0001883 318.7252  41.3586 15.22847931 40253
KUIPER-00069            
1 64816U 25151A   26065.60771103  .00001074  00000+0  16995-3 0  9997
2 64816  51.9010 294.2531 0000773  96.8045 263.3005 14.79924623 36306
KUIPER-00070            
1 64817U 25151B   26065.41193072  .00006098  00000+0  82803-3 0  9992
2 64817  51.9012 320.0554 0000855  98.5333 261.5726 14.79942173 35930
KUIPER-00071            
1 64818U 25151C   26065.07658858  .00005142  00000+0  70115-3 0  9995
2 64818  51.9023 319.0558 0000532 246.6524 113.4383 14.80045616 34734
KUIPER-00072            
1 64819U 25151D   26065.06471617 -.00001527  00000+0 -17132-3 0  9996
2 64819  51.8982 299.0982 0001269  99.4793 260.6313 14.79945874 35019
KUIPER-00073            
1 64820U 25151E   26064.90814823  .00001560  00000+0  23367-3 0  9992
2 64820  51.9014 319.7978 0001042  98.2203 261.8878 14.79922374 35890
KUIPER-00074            
1 64821U 25151F   26065.83334490  .01847251  00000+0  12264+0 0  9999
2 64821  51.9030 302.4230 0000211 327.6741 267.4801 15.03632397  4033
KUIPER-00075            
1 64822U 25151G   26065.47026037  .00084339  00000+0  19526-2 0  9995
2 64822  51.8700 237.4514 0003585 258.4558 101.6029 15.41719220 35907
KUIPER-00076            
1 64823U 25151H   26065.38231385  .00005443  00000+0  73286-3 0  9993
2 64823  51.9003 307.6172 0000625  15.1585 344.9396 14.80486032 34929
KUIPER-00077            
1 64824U 25151J   26064.97966143  .00004595  00000+0  62802-3 0  9994
2 64824  51.9029 314.4926 0000940 190.9799 169.1143 14.80156372 34793
KUIPER-00078            
1 64825U 25151K   26065.08504854  .00001729  00000+0  25572-3 0  9994
2 64825  51.9065 311.5267 0000562 254.7343 105.3557 14.79933799 34845
KUIPER-00079            
1 64826U 25151L   26064.91068623 -.00001966  00000+0 -22898-3 0  9998
2 64826  51.9015 317.2693 0000688  69.5586 290.5451 14.79936631 35947
KUIPER-00080            
1 64827U 25151M   26065.07966087  .00000716  00000+0  12295-3 0  9998
2 64827  51.9002 316.5346 0000590  88.2490 271.8540 14.79925904 34777
KUIPER-00082            
1 64828U 25151N   26064.85674832 -.00007138  00000+0 -90830-3 0  9996
2 64828  51.9020 305.0519 0000698 115.9771 244.1264 14.79930819 34915
