[{"OBJECT_NAME":"KUIPER-00064","OBJECT_ID":"2025-134AA","EPOCH":"2026-03-06T10:53:22.290144","MEAN_MOTION":14.79660899,"ECCENTRICITY":0.00012651,"INCLINATION":51.9034,"RA_OF_ASC_NODE":249.8324,"ARG_OF_PERICENTER":79.455,"MEAN_ANOMALY":280.6554,"EPHEMERIS_TYPE":0,"CLASSIFICATION_TYPE":"U","NORAD_CAT_ID":64524,"ELEMENT_SET_NO":999,"REV_AT_EPOCH":3956,"BSTAR":-0.011047256,"MEAN_MOTION_DOT":-0.00082872,"MEAN_MOTION_DDOT":0},{"OBJECT_NAME":"KUIPER-00065","OBJECT_ID":"2025-134AB","EPOCH":"2026-03-06T12:22:42.555648","MEAN_MOTION":14.79916148,"ECCENTRICITY":7.96e-5,"INCLINATION":51.9024,"RA_OF_ASC_NODE":254.7134,"ARG_OF_PERICENTER":77.5932,"MEAN_ANOMALY":282.5119,"EPHEMERIS_TYPE":0,"CLASSIFICATION_TYPE":"U","NORAD_CAT_ID":64525,"ELEMENT_SET_NO":999,"REV_AT_EPOCH":3948,"BSTAR":0.00054384123,"MEAN_MOTION_DOT":3.925e-5,"MEAN_MOTION_DDOT":0},{"OBJECT_NAME":"KUIPER-00066","OBJECT_ID":"2025-134AC","EPOCH":"2026-03-06T08:32:22.913664","MEAN_MOTION":15.22847931,"ECCENTRICITY":0.00018833,"INCLINATION":51.8699,"RA_OF_ASC_NODE":199.7817,"ARG_OF_PERICENTER":318.7252,"MEAN_ANOMALY":41.3586,"EPHEMERIS_TYPE":0,"CLASSIFICATION_TYPE":"U","NORAD_CAT_ID":64526,"ELEMENT_SET_NO":999,"REV_AT_EPOCH":4025,"BSTAR":0.00088373864,"MEAN_MOTION_DOT":0.00020697,"MEAN_MOTION_DDOT":0},{"OBJECT_NAME":"KUIPER-00069","OBJECT_ID":"2025-151A","EPOCH":"2026-03-06T14:35:06.232992","MEAN_MOTION":14.79924623,"ECCENTRICITY":7.732e-5,"INCLINATION":51.901,"RA_OF_ASC_NODE":294.2531,"ARG_OF_PERICENTER":96.8045,"MEAN_ANOMALY":263.3005,"EPHEMERIS_TYPE":0,"CLASSIFICATION_TYPE":"U","NORAD_CAT_ID":64816,"ELEMENT_SET_NO":999,"REV_AT_EPOCH":3630,"BSTAR":0.00016995032,"MEAN_MOTION_DOT":1.074e-5,"MEAN_MOTION_DDOT":0},{"OBJECT_NAME":"KUIPER-00070","OBJECT_ID":"2025-151B","EPOCH":"2026-03-06T09:53:10.814208","MEAN_MOTION":14.79942173,"ECCENTRICITY":8.556e-5,"INCLINATION":51.9012,"RA_OF_ASC_NODE":320.0554,"ARG_OF_PERICENTER":98.5333,"MEAN_ANOMALY":261.5726,"EPHEMERIS_TYPE":0,"CLASSIFICATION_TYPE":"U","NORAD_CAT_ID":64817,"ELEMENT_SET_NO":999,"REV_AT_EPOCH":3593,"BSTAR":0.00082802879,"MEAN_MOTION_DOT":6.098e-5,"MEAN_MOTION_DDOT":0},{"OBJECT_NAME":"KUIPER-00071","OBJECT_ID":"2025-151C","EPOCH":"2026-03-06T01:50:17.253312","MEAN_MOTION":14.80045616,"ECCENTRICITY":5.329e-5,"INCLINATION":51.9023,"RA_OF_ASC_NODE":319.0558,"ARG_OF_PERICENTER":246.6524,"MEAN_ANOMALY":113.4383,"EPHEMERIS_TYPE":0,"CLASSIFICATION_TYPE":"U","NORAD_CAT_ID":64818,"ELEMENT_SET_NO":999,"REV_AT_EPOCH":3473,"BSTAR":0.00070114945,"MEAN_MOTION_DOT":5.142e-5,"MEAN_MOTION_DDOT":0},{"OBJECT_NAME":"KUIPER-00072","OBJECT_ID":"2025-151D","EPOCH":"2026-03-06T01:33:11.477088","MEAN_MOTION":14.79945874,"ECCENTRICITY":0.00012693,"INCLINATION":51.8982,"RA_OF_ASC_NODE":299.0982,"ARG_OF_PERICENTER":99.4793,"MEAN_ANOMALY":260.6313,"EPHEMERIS_TYPE":0,"CLASSIFICATION_TYPE":"U","NORAD_CAT_ID":64819,"ELEMENT_SET_NO":999,"REV_AT_EPOCH":3501,"BSTAR":-0.00017131501,"MEAN_MOTION_DOT":-1.527e-5,"MEAN_MOTION_DDOT":0},{"OBJECT_NAME":"KUIPER-00073","OBJECT_ID":"2025-151E","EPOCH":"2026-03-05T21:47:44.007072","MEAN_MOTION":14.79922374,"ECCENTRICITY":0.00010428,"INCLINATION":51.9014,"RA_OF_ASC_NODE":319.7978,"ARG_OF_PERICENTER":98.2203,"MEAN_ANOMALY":261.8878,"EPHEMERIS_TYPE":0,"CLASSIFICATION_TYPE":"U","NORAD_CAT_ID":64820,"ELEMENT_SET_NO":999,"REV_AT_EPOCH":3589,"BSTAR":0.00023367452,"MEAN_MOTION_DOT":1.56e-5,"MEAN_MOTION_DDOT":0},{"OBJECT_NAME":"KUIPER-00074","OBJECT_ID":"2025-151F","EPOCH":"2026-03-06T20:00:00.999360","MEAN_MOTION":15.03632397,"ECCENTRICITY":2.11e-5,"INCLINATION":51.903,"RA_OF_ASC_NODE":302.423,"ARG_OF_PERICENTER":327.6741,"MEAN_ANOMALY":267.4801,"EPHEMERIS_TYPE":0,"CLASSIFICATION_TYPE":"U","NORAD_CAT_ID":64821,"ELEMENT_SET_NO":999,"REV_AT_EPOCH":403,"BSTAR":0.12264,"MEAN_MOTION_DOT":0.01847251,"MEAN_MOTION_DDOT":0},{"OBJECT_NAME":"KUIPER-00075","OBJECT_ID":"2025-151G","EPOCH":"2026-03-06T11:17:10.495968","MEAN_MOTION":15.4171922,"ECCENTRICITY":0.00035858,"INCLINATION":51.87,"RA_OF_ASC_NODE":237.4514,"ARG_OF_PERICENTER":258.4558,"MEAN_ANOMALY":101.6029,"EPHEMERIS_TYPE":0,"CLASSIFICATION_TYPE":"U","NORAD_CAT_ID":64822,"ELEMENT_SET_NO":999,"REV_AT_EPOCH":3590,"BSTAR":0.001952579,"MEAN_MOTION_DOT":0.00084339,"MEAN_MOTION_DDOT":0},{"OBJECT_NAME":"KUIPER-00076","OBJECT_ID":"2025-151H","EPOCH":"2026-03-06T09:10:31.916640","MEAN_MOTION":14.80486032,"ECCENTRICITY":6.258e-5,"INCLINATION":51.9003,"RA_OF_ASC_NODE":307.6172,"ARG_OF_PERICENTER":15.1585,"MEAN_ANOMALY":344.9396,"EPHEMERIS_TYPE":0,"CLASSIFICATION_TYPE":"U","NORAD_CAT_ID":64823,"ELEMENT_SET_NO":999,"REV_AT_EPOCH":3492,"BSTAR":0.00073286118,"MEAN_MOTION_DOT":5.443e-5,"MEAN_MOTION_DDOT":0},{"OBJECT_NAME":"KUIPER-00077","OBJECT_ID":"2025-151J","EPOCH":"2026-03-05T23:30:42.747552","MEAN_MOTION":14.80156372,"ECCENTRICITY":9.405e-5,"INCLINATION":51.9029,"RA_OF_ASC_NODE":314.4926,"ARG_OF_PERICENTER":190.9799,"MEAN_ANOMALY":169.1143,"EPHEMERIS_TYPE":0,"CLASSIFICATION_TYPE":"U","NORAD_CAT_ID":64824,"ELEMENT_SET_NO":999,"REV_AT_EPOCH":3479,"BSTAR":0.00062802142,"MEAN_MOTION_DOT":4.595e-5,"MEAN_MOTION_DDOT":0},{"OBJECT_NAME":"KUIPER-00078","OBJECT_ID":"2025-151K","EPOCH":"2026-03-06T02:02:28.193856","MEAN_MOTION":14.79933799,"ECCENTRICITY":5.628e-5,"INCLINATION":51.9065,"RA_OF_ASC_NODE":311.5267,"ARG_OF_PERICENTER":254.7343,"MEAN_ANOMALY":105.3557,"EPHEMERIS_TYPE":0,"CLASSIFICATION_TYPE":"U","NORAD_CAT_ID":64825,"ELEMENT_SET_NO":999,"REV_AT_EPOCH":3484,"BSTAR":0.00025572355,"MEAN_MOTION_DOT":1.729e-5,"MEAN_MOTION_DDOT":0},{"OBJECT_NAME":"KUIPER-00079","OBJECT_ID":"2025-151L","EPOCH":"2026-03-05T21:51:23.290272","MEAN_MOTION":14.79936631,"ECCENTRICITY":6.88e-5,"INCLINATION":51.9015,"RA_OF_ASC_NODE":317.2693,"ARG_OF_PERICENTER":69.5586,"MEAN_ANOMALY":290.5451,"EPHEMERIS_TYPE":0,"CLASSIFICATION_TYPE":"U","NORAD_CAT_ID":64826,"ELEMENT_SET_NO":999,"REV_AT_EPOCH":3594,"BSTAR":-0.00022898161,"MEAN_MOTION_DOT":-1.966e-5,"MEAN_MOTION_DDOT":0},{"OBJECT_NAME":"KUIPER-00080","OBJECT_ID":"2025-151M","EPOCH":"2026-03-06T01:54:42.699168","MEAN_MOTION":14.79925904,"ECCENTRICITY":5.903e-5,"INCLINATION":51.9002,"RA_OF_ASC_NODE":316.5346,"ARG_OF_PERICENTER":88.249,"MEAN_ANOMALY":271.854,"EPHEMERIS_TYPE":0,"CLASSIFICATION_TYPE":"U","NORAD_CAT_ID":64827,"ELEMENT_SET_NO":999,"REV_AT_EPOCH":3477,"BSTAR":0.00012295244,"MEAN_MOTION_DOT":7.16e-6,"MEAN_MOTION_DDOT":0},{"OBJECT_NAME":"KUIPER-00082","OBJECT_ID":"2025-151N","EPOCH":"2026-03-05T20:33:43.054848","MEAN_MOTION":14.79930819,"ECCENTRICITY":6.982e-5,"INCLINATION":51.902,"RA_OF_ASC_NODE":305.0519,"ARG_OF_PERICENTER":115.9771,"MEAN_ANOMALY":244.1264,"EPHEMERIS_TYPE":0,"CLASSIFICATION_TYPE":"U","NORAD_CAT_ID":64828,"ELEMENT_SET_NO":999,"REV_AT_EPOCH":3491,"BSTAR":-0.00090829919,"MEAN_MOTION_DOT":-7.138e-5,"MEAN_MOTION_DDOT":0}]
